ONEWEB-0128             
1 47274U 20100S   23059.55964633 -.00000140  00000+0 -42355-3 0  9995
2 47274  87.8948 229.9449 0001251 108.4241 251.7024 13.12440740106732
ONEWEB-0128             
1 47274U 20100S   23059.86459568 -.00000063  00000+0 -21083-3 0  9994
2 47274  87.8949 229.8845 0001272 108.9836 251.1431 13.12440934106775
ONEWEB-0128             
1 47274U 20100S   23060.85568105  .00000171  00000+0  44076-3 0  9998
2 47274  87.8948 229.6877 0001289 109.3562 250.7706 13.12441474106901
ONEWEB-0128             
1 47274U 20100S   23061.00815666  .00000095  00000+0  22768-3 0  9992
2 47274  87.8948 229.6574 0001275 109.6853 250.4413 13.12440748106923
ONEWEB-0128             
1 47274U 20100S   23061.69429201  .00000344  00000+0  92162-3 0  9995
2 47274  87.8949 229.5212 0001281 110.1905 249.9362 13.12441532107013
ONEWEB-0128             
1 47274U 20100S   23062.22795310  .00000440  00000+0  11889-2 0  9995
2 47274  87.8952 229.4153 0001245 110.9396 249.1865 13.12441887107082
ONEWEB-0128             
1 47274U 20100S   23062.45666522  .00000435  00000+0  11736-2 0  9997
2 47274  87.8953 229.3699 0001248 111.2172 248.9090 13.12441789107118
ONEWEB-0128             
1 47274U 20100S   23062.83785272  .00000510  00000+0  13812-2 0  9994
2 47274  87.8955 229.2943 0001403 112.3014 247.8263 13.12440594107169
